{
    "title": "Chez Mademoiselle",
    "address": "21 Rue Mademoiselle",
    "postCode": "75015"
}{
    "title": "Camélia",
    "address": "251 rue St-Honoré",
    "postCode": "75001"
}{
    "title": "Agapé",
    "address": "51 rue Jouffroy-d'Abbans",
    "postCode": "75017"
}{
    "title": "La Scène",
    "address": "33 Avenue George V",
    "postCode": "75008"
}{
    "title": "La Truffière",
    "address": "4 rue Blainville",
    "postCode": "75005"
}{
    "title": "La Truffière",
    "address": "4 rue Blainville",
    "postCode": "75005"
}{
    "title": "Le Violon d'Ingres",
    "address": "135 route St-Dominique",
    "postCode": "75007"
}{
    "title": "Le Violon d'Ingres",
    "address": "135 route St-Dominique",
    "postCode": "75007"
}{
    "title": "Mère Brazier",
    "address": "12 rue Royale",
    "postCode": "69001"
}{
    "title": "Le Meurice Alain Ducasse",
    "address": "228 Rue de Rivoli",
    "postCode": "75001"
}{
    "title": "Schilling",
    "address": "37 Rue Caisserie",
    "postCode": "13002"
}{
    "title": "Camélia",
    "address": "251 rue St-Honoré",
    "postCode": "75001"
}{
    "title": "Le Grand Véfour",
    "address": "17 rue de Beaujolais",
    "postCode": "75001"
}{
    "title": "Tintilou",
    "address": "37 bis r. de Montreuil",
    "postCode": "75011"
}{
    "title": "Wadja",
    "address": "10 rue de la Grande Chaumière",
    "postCode": "75006"
}{
    "title": "La Pagode de Cos",
    "address": "42 avenue Gabriel",
    "postCode": "75008"
}{
    "title": "Atelier Maître Albert",
    "address": "1 r. Maître Albert",
    "postCode": "75005"
}{
    "title": "Chamarré Montmartre",
    "address": "52 rue Lamarck",
    "postCode": "75018"
}{
    "title": "La Pagode de Cos",
    "address": "42 avenue Gabriel",
    "postCode": "75008"
}{
    "title": "Chamarré Montmartre",
    "address": "52 rue Lamarck",
    "postCode": "75018"
}{
    "title": "Le Troquet",
    "address": "21 r. François-Bonvin",
    "postCode": "75015"
}{
    "title": "Maison Gambert",
    "address": "9 route de Chantemerle",
    "postCode": "26600"
}{
    "title": "Maison Rostang",
    "address": "20 rue Rennequin",
    "postCode": "75017"
}{
    "title": "Le Baudelaire",
    "address": "6-8 rue Duphot",
    "postCode": "75001"
}{
    "title": "Auberge de l'Île Barbe",
    "address": "1 Place Notre-Dame",
    "postCode": "69009"
}{
    "title": "Hexagone",
    "address": "85 Avenue Kléber",
    "postCode": "75016"
}{
    "title": "Le Pré Catelan",
    "address": "Route de Suresnes",
    "postCode": "75016"
}{
    "title": "Le Mazenay",
    "address": "46 rue de Montmorency",
    "postCode": "75003"
}{
    "title": "Hexagone",
    "address": "85 Avenue Kléber",
    "postCode": "75016"
}{
    "title": "Le Baudelaire",
    "address": "6-8 rue Duphot",
    "postCode": "75001"
}{
    "title": "Le Restaurant",
    "address": "13 rue des Beaux-Arts",
    "postCode": "75006"
}{
    "title": "Agapé",
    "address": "51 rue Jouffroy-d'Abbans",
    "postCode": "75017"
}{
    "title": "Crom'Exquis",
    "address": "22 Rue d'Astorg",
    "postCode": "75008"
}{
    "title": "Mansouria",
    "address": "11 Rue Faidherbe",
    "postCode": "75011"
}{
    "title": "Le Restaurant",
    "address": "13 rue des Beaux-Arts",
    "postCode": "75006"
}{
    "title": "Crom'Exquis",
    "address": "22 Rue d'Astorg",
    "postCode": "75008"
}{
    "title": "Agapé",
    "address": "51 rue Jouffroy-d'Abbans",
    "postCode": "75017"
}{
    "title": "Le Petit Nice",
    "address": "Anse de Maldormé - Corniche J. F. Kennedy",
    "postCode": "13007"
}{
    "title": "Mère Brazier",
    "address": "12 rue Royale",
    "postCode": "69001"
}{
    "title": "Mère Brazier",
    "address": "12 rue Royale",
    "postCode": "69001"
}{
    "title": "Sur la Braise",
    "address": "19 Rue Bréa",
    "postCode": "75006"
}{
    "title": "Officina Schenatti",
    "address": "15 Rue Frédéric Sauton",
    "postCode": "75005"
}{
    "title": "Le Pré Catelan",
    "address": "Route de Suresnes",
    "postCode": "75016"
}{
    "title": "Le Taillevent",
    "address": "15 Rue Lamennais",
    "postCode": "75008"
}{
    "title": "Les Tablettes de Jean-Louis Nomicos",
    "address": "16 avenue Bugeaud",
    "postCode": "75116"
}{
    "title": "Le Petit Nice",
    "address": "Anse de Maldormé - Corniche J. F. Kennedy",
    "postCode": "13007"
}{
    "title": "Le Cinq Codet",
    "address": "5 Rue Louis Codet",
    "postCode": "75007"
}{
    "title": "Maison Rostang",
    "address": "20 rue Rennequin",
    "postCode": "75017"
}{
    "title": "Sur la Braise",
    "address": "19 Rue Bréa",
    "postCode": "75006"
}{
    "title": "Le Pergolèse",
    "address": "40, Rue Pergolèse",
    "postCode": "75016"
}{
    "title": "Sur Mesure par Thierry Marx",
    "address": "251 r. St-Honoré",
    "postCode": "75001"
}{
    "title": "Le Restaurant",
    "address": "13 rue des Beaux-Arts",
    "postCode": "75006"
}{
    "title": "Assiette Champenoise",
    "address": "40 av. Paul Vaillant-Couturier",
    "postCode": "51430"
}{
    "title": "Paul Bocuse",
    "address": "40 Rue de la Plage",
    "postCode": "69660"
}{
    "title": "Les Bouquinistes",
    "address": "53 quai des Grands-Augustins",
    "postCode": "75006"
}{
    "title": "Laurent Perréal",
    "address": "481 Grande Rue",
    "postCode": "01340"
}{
    "title": "Le Baudelaire",
    "address": "6-8 rue Duphot",
    "postCode": "75001"
}{
    "title": "Penati al Baretto",
    "address": "9 rue Balzac",
    "postCode": "75008"
}{
    "title": "Le Chiberta",
    "address": "3 Rue Arsène Houssaye",
    "postCode": "75008"
}{
    "title": "Le Gabriel",
    "address": "42 Avenue Gabriel",
    "postCode": "75008"
}{
    "title": "Penati al Baretto",
    "address": "9 rue Balzac",
    "postCode": "75008"
}{
    "title": "Le Chiberta",
    "address": "3 Rue Arsène Houssaye",
    "postCode": "75008"
}{
    "title": "Le Gabriel",
    "address": "42 Avenue Gabriel",
    "postCode": "75008"
}{
    "title": "G.a. au Manoir de Rétival",
    "address": "Corniche de Rétival",
    "postCode": "76490"
}{
    "title": "Le Clair de la Plume",
    "address": "Place du Mail",
    "postCode": "26230"
}{
    "title": "G.a. au Manoir de Rétival",
    "address": "Corniche de Rétival",
    "postCode": "76490"
}{
    "title": "Le Gabriel",
    "address": "42 Avenue Gabriel",
    "postCode": "75008"
}{
    "title": "Le Gabriel",
    "address": "42 Avenue Gabriel",
    "postCode": "75008"
}{
    "title": "En Marge",
    "address": "Route de Lacroix Falgarde - lieu dit Birol",
    "postCode": "31320"
}{
    "title": "Le Grand Véfour",
    "address": "17 rue de Beaujolais",
    "postCode": "75001"
}{
    "title": "L'Atelier des Augustins",
    "address": "11 Rue des Augustins",
    "postCode": "69001"
}{
    "title": "Caméléon d'Arabian",
    "address": "6 rue Chevreuse",
    "postCode": "75006"
}{
    "title": "Auberge de l'Île Barbe",
    "address": "1 Place Notre-Dame",
    "postCode": "69009"
}{
    "title": "Le Bibent",
    "address": "5 place du Capitole",
    "postCode": "31000"
}{
    "title": "L'Atelier des Augustins",
    "address": "11 Rue des Augustins",
    "postCode": "69001"
}{
    "title": "Paul Bocuse",
    "address": "40 Rue de la Plage",
    "postCode": "69660"
}{
    "title": "La Scène Thélème",
    "address": "18 Rue Troyon",
    "postCode": "75017"
}{
    "title": "La Scène Thélème",
    "address": "18 Rue Troyon",
    "postCode": "75017"
}{
    "title": "Paul Bocuse",
    "address": "40 Rue de la Plage",
    "postCode": "69660"
}{
    "title": "Le Pavillon des Boulevards",
    "address": "120 r. Croix-de-Seguey",
    "postCode": "33000"
}{
    "title": "La Rotonde",
    "address": "200 Avenue du Casino",
    "postCode": "69890"
}{
    "title": "La Scène Thélème",
    "address": "18 Rue Troyon",
    "postCode": "75017"
}{
    "title": "Le Vivarais",
    "address": "1 pl. Gailleton",
    "postCode": "69002"
}{
    "title": "Le Pré Catelan",
    "address": "Route de Suresnes",
    "postCode": "75016"
}
